sat41541
1 41541U 14087C   20046.13471642  .00003837  00000-0  57061-4 0  9999
2 41541  97.3774 185.7306 0004489  99.6367 260.5395 15.55810479286426
